[{"OBJECT_NAME":"IRIDIUM 109","OBJECT_ID":"2017-003C","EPOCH":"2026-03-09T16:03:22.246272","MEAN_MOTION":14.34217553,"ECCENTRICITY":0.00020925,"INCLINATION":86.3982,"RA_OF_ASC_NODE":130.128,"ARG_OF_PERICENTER":95.091,"MEAN_ANOMALY":265.0525,"EPHEMERIS_TYPE":0,"CLASSIFICATION_TYPE":"U","NORAD_CAT_ID":41919,"ELEMENT_SET_NO":999,"REV_AT_EPOCH":47893,"BSTAR":-6.19911e-6,"MEAN_MOTION_DOT":2.0e-8,"MEAN_MOTION_DDOT":0},{"OBJECT_NAME":"COSMOS 2150","OBJECT_ID":"1991-041A","EPOCH":"2026-03-09T21:22:27.398496","MEAN_MOTION":14.32619295,"ECCENTRICITY":0.00160185,"INCLINATION":74.0357,"RA_OF_ASC_NODE":293.6901,"ARG_OF_PERICENTER":108.0273,"MEAN_ANOMALY":252.2625,"EPHEMERIS_TYPE":0,"CLASSIFICATION_TYPE":"U","NORAD_CAT_ID":21418,"ELEMENT_SET_NO":999,"REV_AT_EPOCH":81476,"BSTAR":6.2548549e-5,"MEAN_MOTION_DOT":1.44e-6,"MEAN_MOTION_DDOT":0}]
